H1 CPF 01  gfz 2022 12 12 01  8461 tandemx   
H2 1003001  6202 36605    2022 12 12 00 59 42 2022 12 17 00 00 42   120 1 1  0 0 0
H9
10 0 59927  79182.000000  0    2436392.088  -5141933.070   3874295.635
10 0 59927  79302.000000  0    2027563.075  -4717386.866   4582861.942
10 0 59927  79422.000000  0    1591519.511  -4203009.923   5210772.560
10 0 59927  79542.000000  0    1137388.746  -3607421.224   5747009.361
10 0 59927  79662.000000  0     674444.114  -2940813.487   6182177.351
10 0 59927  79782.000000  0     211915.261  -2214771.303   6508662.572
10 0 59927  79902.000000  0    -241194.907  -1442065.165   6720758.255
10 0 59927  80022.000000  0    -676284.022   -636425.022   6814759.502
10 0 59927  80142.000000  0   -1085312.395    187705.282   6789024.781
10 0 59927  80262.000000  0   -1460950.984   1015427.080   6644002.524
10 0 59927  80382.000000  0   -1796712.298   1831655.501   6382223.487
10 0 59927  80502.000000  0   -2087062.937   2621393.618   6008259.487
10 0 59927  80622.000000  0   -2327515.544   3370008.541   5528648.220
10 0 59927  80742.000000  0   -2514698.933   4063504.519   4951785.372
10 0 59927  80862.000000  0   -2646406.194   4688789.654   4287784.327
10 0 59927  80982.000000  0   -2721618.404   5233930.147   3548303.436
10 0 59927  81102.000000  0   -2740503.387   5688386.341   2746343.089
10 0 59927  81222.000000  0   -2704389.288   6043224.278   1896016.344
10 0 59927  81342.000000  0   -2615713.908   6291298.556   1012297.383
10 0 59927  81462.000000  0   -2477950.121   6427401.676    110752.086
10 0 59927  81582.000000  0   -2295509.714   6448375.904   -792743.963
10 0 59927  81702.000000  0   -2073628.278   6353184.853  -1682295.026
10 0 59927  81822.000000  0   -1818232.194   6142939.202  -2542276.586
10 0 59927  81942.000000  0   -1535792.129   5820876.565  -3357615.123
10 0 59927  82062.000000  0   -1233169.261   5392302.612  -4114053.686
10 0 59927  82182.000000  0    -917457.113   4864492.043  -4798400.490
10 0 59927  82302.000000  0    -595822.598   4246553.561  -5398753.670
10 0 59927  82422.000000  0    -275349.672   3549263.023  -5904701.289
10 0 59927  82542.000000  0      37111.309   2784866.533  -6307492.796
10 0 59927  82662.000000  0     335084.471   1966859.147  -6600178.340
10 0 59927  82782.000000  0     612597.124   1109745.982  -6777717.549
10 0 59927  82902.000000  0     864295.131    228786.926  -6837057.818
10 0 59927  83022.000000  0    1085542.653   -660270.513  -6777180.841
10 0 59927  83142.000000  0    1272504.760  -1541466.734  -6599116.816
10 0 59927  83262.000000  0    1422212.154  -2398908.248  -6305927.824
10 0 59927  83382.000000  0    1532608.245  -3217047.134  -5902662.312
10 0 59927  83502.000000  0    1602576.746  -3980960.533  -5396278.839
10 0 59927  83622.000000  0    1631949.136  -4676623.867  -4795535.762
10 0 59927  83742.000000  0    1621492.907  -5291170.282  -4110850.444
10 0 59927  83862.000000  0    1572879.609  -5813135.977  -3354129.964
10 0 59927  83982.000000  0    1488632.275  -6232684.383  -2538571.686
10 0 59927  84102.000000  0    1372054.732  -6541802.918  -1678437.423
10 0 59927  84222.000000  0    1227143.706  -6734467.810   -788804.659
10 0 59927  84342.000000  0    1058483.933  -6806772.434    114700.978
10 0 59927  84462.000000  0     871131.144  -6757013.791   1016186.422
10 0 59927  84582.000000  0     670484.076  -6585736.036   1899778.639
10 0 59927  84702.000000  0     462149.927  -6295728.596   2749914.252
10 0 59927  84822.000000  0     251805.647  -5891976.969   3551623.137
10 0 59927  84942.000000  0      45058.408  -5381569.274   4290797.426
10 0 59927  85062.000000  0    -152689.898  -4773563.646   4954442.765
10 0 59927  85182.000000  0    -336371.238  -4078817.347   5530907.536
10 0 59927  85302.000000  0    -501369.706  -3309783.199   6010085.705
10 0 59927  85422.000000  0    -643627.555  -2480276.255   6383589.586
10 0 59927  85542.000000  0    -759736.696  -1605219.339   6644888.645
10 0 59927  85662.000000  0    -847013.994   -700372.477   6789417.769
10 0 59927  85782.000000  0    -903559.570    217952.453   6814653.463
10 0 59927  85902.000000  0    -928296.610   1133186.188   6720155.236
10 0 59927  86022.000000  0    -920991.256   2028800.635   6507572.638
10 0 59927  86142.000000  0    -882253.127   2888606.807   6180618.169
10 0 59927  86262.000000  0    -813516.879   3697048.016   5745006.693
10 0 59927  86382.000000  0    -717004.654   4439484.057   5208360.640
10 0 59928    102.000000  0    -595669.958   5102460.849   4580083.064
10 0 59928    222.000000  0    -453124.408   5673962.898   3871197.889
10 0 59928    342.000000  0    -293547.618   6143638.049   3094159.524
10 0 59928    462.000000  0    -121584.680   6502997.220   2262638.142
10 0 59928    582.000000  0      57769.711   6745579.732   1391273.633
10 0 59928    702.000000  0     239297.372   6867075.433    495412.262
10 0 59928    822.000000  0     417688.219   6865406.315   -409170.521
10 0 59928    942.000000  0     587675.149   6740763.149  -1306557.217
10 0 59928   1062.000000  0     744166.647   6495594.874  -2180977.186
10 0 59928   1182.000000  0     882374.570   6134553.792  -3017090.374
10 0 59928   1302.000000  0     997935.188   5664397.897  -3800260.736
10 0 59928   1422.000000  0    1087020.085   5093852.880  -4516813.903
10 0 59928   1542.000000  0    1146434.176   4433437.576  -5154273.546
10 0 59928   1662.000000  0    1173698.727   3695258.406  -5701571.939
10 0 59928   1782.000000  0    1167117.263   2892778.713  -6149233.255
10 0 59928   1902.000000  0    1125823.717   2040566.544  -6489526.681
10 0 59928   2022.000000  0    1049811.973   1154028.636  -6716587.546
10 0 59928   2142.000000  0     939946.653    249134.222  -6826509.139
10 0 59928   2262.000000  0     797955.221   -657868.358  -6817402.609
10 0 59928   2382.000000  0     626400.900  -1550737.316  -6689424.616
10 0 59928   2502.000000  0     428637.699  -2413519.677  -6444773.733
10 0 59928   2622.000000  0     208747.940  -3230829.006  -6087658.956
10 0 59928   2742.000000  0     -28538.248  -3988117.505  -5624235.586
10 0 59928   2862.000000  0    -277938.345  -4671934.010  -5062508.688
10 0 59928   2982.000000  0    -533727.509  -5270166.197  -4412206.742
10 0 59928   3102.000000  0    -789861.926  -5772262.624  -3684624.238
10 0 59928   3222.000000  0   -1040112.646  -6169429.118  -2892434.316
10 0 59928   3342.000000  0   -1278207.106  -6454794.693  -2049474.343
10 0 59928   3462.000000  0   -1497975.497  -6623543.815  -1170506.733
10 0 59928   3582.000000  0   -1693497.942  -6673009.526   -270958.226
10 0 59928   3702.000000  0   -1859249.066  -6602724.207    633356.211
10 0 59928   3822.000000  0   -1990236.541  -6414426.429   1526519.015
10 0 59928   3942.000000  0   -2082129.592  -6112023.192   2392799.274
10 0 59928   4062.000000  0   -2131373.734  -5701507.954   3216939.032
10 0 59928   4182.000000  0   -2135288.542  -5190836.541   3984429.425
10 0 59928   4302.000000  0   -2092146.303  -4589765.337   4681770.596
10 0 59928   4422.000000  0   -2001230.269  -3909656.709   5296710.765
10 0 59928   4542.000000  0   -1862871.496  -3163255.015   5818461.593
10 0 59928   4662.000000  0   -1678461.916  -2364438.475   6237883.417
10 0 59928   4782.000000  0   -1450444.290  -1527955.610   6547639.126
10 0 59928   4902.000000  0   -1182280.696   -669149.388   6742317.070
10 0 59928   5022.000000  0    -878400.313    196326.779   6818519.155
10 0 59928   5142.000000  0    -544126.578   1052793.441   6774916.210
10 0 59928   5262.000000  0    -185583.765   1884828.801   6612270.411
10 0 59928   5382.000000  0     190415.178   2677546.242   6333422.664
10 0 59928   5502.000000  0     576497.275   3416860.588   5943245.721
10 0 59928   5622.000000  0     964872.297   4089740.429   5448564.399
10 0 59928   5742.000000  0    1347488.031   4684442.044   4858041.974
10 0 59928   5862.000000  0    1716195.323   5190721.043   4182033.972
10 0 59928   5982.000000  0    2062919.534   5600015.787   3432411.291
10 0 59928   6102.000000  0    2379836.202   5905601.930   2622355.756
10 0 59928   6222.000000  0    2659544.033   6102712.859   1766125.572
10 0 59928   6342.000000  0    2895233.706   6188619.632    878799.098
10 0 59928   6462.000000  0    3080845.093   6162669.342    -23997.867
10 0 59928   6582.000000  0    3211211.168   6026282.515   -926374.876
10 0 59928   6702.000000  0    3282184.930   5782908.380  -1812464.922
10 0 59928   6822.000000  0    3290745.376   5437940.177  -2666710.779
10 0 59928   6942.000000  0    3235080.490   4998592.000  -3474144.604
10 0 59928   7062.000000  0    3114644.006   4473739.962  -4220653.292
10 0 59928   7182.000000  0    2930185.916   3873734.418  -4893223.565
10 0 59928   7302.000000  0    2683756.266   3210187.981  -5480164.197
10 0 59928   7422.000000  0    2378683.755   2495743.945  -5971301.284
10 0 59928   7542.000000  0    2019528.753   1743830.703  -6358144.342
10 0 59928   7662.000000  0    1612012.690    968407.870  -6634020.908
10 0 59928   7782.000000  0    1162926.700    183709.381  -6794180.505
10 0 59928   7902.000000  0     680018.487   -596013.353  -6835868.939
10 0 59928   8022.000000  0     171859.750  -1356745.168  -6758369.331
10 0 59928   8142.000000  0    -352301.941  -2084951.740  -6563011.856
10 0 59928   8262.000000  0    -882706.675  -2767814.038  -6253154.943
10 0 59928   8382.000000  0   -1409259.644  -3393451.364  -5834134.052
10 0 59928   8502.000000  0   -1921718.265  -3951126.578  -5313178.812
10 0 59928   8622.000000  0   -2409887.783  -4431432.912  -4699300.688
10 0 59928   8742.000000  0   -2863822.851  -4826459.174  -4003148.616
10 0 59928   8862.000000  0   -3274029.850  -5129927.632  -3236833.518
10 0 59928   8982.000000  0   -3631665.739  -5337302.528  -2413725.227
10 0 59928   9102.000000  0   -3928729.914  -5445866.548  -1548223.489
10 0 59928   9222.000000  0   -4158243.724  -5454762.277   -655506.039
99
